QIANFAN-33              
1 61566U 24185Q   25223.58880582  .00000248  00000+0  16965-3 0  9995
2 61566  88.9771  92.5585 0007219   8.1643 351.9650 13.96410396 51974
QIANFAN-34              
1 61567U 24185R   25223.91630440  .00000366  00000+0  23038-3 0  9999
2 61567  88.9749  92.2475 0006716  21.2499 338.8959 14.02162856 52173
QIANFAN-35              
1 61568U 24185S   25223.56272489  .00000625  00000+0  24781-3 0  9990
2 61568  88.9772  91.3578 0006289 351.6451   8.4637 14.27668119 52608
QIANFAN-36              
1 61569U 24185T   25223.61968798  .00000060  00000+0  69247-4 0  9992
2 61569  88.9762  93.8888 0007746  49.2845 310.8981 13.55545982 51248
QIANFAN-37              
1 62238U 24232B   25223.82264640  .00000045  00000+0  51485-4 0  9995
2 62238  88.9925  53.7553 0002649  90.3971 269.7484 13.50965867 82574
QIANFAN-38              
1 62239U 24232C   25223.55124633  .00000043  00000+0  47278-4 0  9996
2 62239  88.9931  53.6903 0014282 183.6647 176.4402 13.50963560 82596
QIANFAN-39              
1 62240U 24232D   25223.56353141  .00000145  00000+0  55405-4 0  9991
2 62240  88.9930  51.4107 0018186 118.2561 242.0470 14.25231848 83849
QIANFAN-40              
1 62241U 24232E   25223.58409791  .00000034  00000+0  34417-4 0  9994
2 62241  88.9958  53.2368 0013052 191.1323 168.9542 13.50960227 82967
